#aV2022  7 22  0  0  0.00000000     288 DD+AD WGS84 FIT  NGA
## 2219 432000.00000000   300.00000000 59782 0.0000000000000
+   32     1  2  3  4  5  6  7  8  9 10 11 12 13 14 15 16 17
+         18 19 20 21 22 23 24 25 26 27 28 29 30 31 32  0  0
+          0  0  0  0  0  0  0  0  0  0  0  0  0  0  0  0  0
+          0  0  0  0  0  0  0  0  0  0  0  0  0  0  0  0  0
+          0  0  0  0  0  0  0  0  0  0  0  0  0  0  0  0  0
++         2  2  2  2  2  2  2  2  2  2  2  2  2  2  2  2  2
++         2  2  2  2  2  2  2  2  2  2  2  2  2  2  2  0  0
++         0  0  0  0  0  0  0  0  0  0  0  0  0  0  0  0  0
++         0  0  0  0  0  0  0  0  0  0  0  0  0  0  0  0  0
++         0  0  0  0  0  0  0  0  0  0  0  0  0  0  0  0  0
%c cc cc ccc ccc cccc cccc cccc cccc ccccc ccccc ccccc ccccc
%c cc cc ccc ccc cccc cccc cccc cccc ccccc ccccc ccccc ccccc
%f  0.0000000  0.000000000  0.00000000000  0.000000000000000
%f  0.0000000  0.000000000  0.00000000000  0.000000000000000
%i    0    0    0    0      0      0      0      0         0
%i    0    0    0    0      0      0      0      0         0
/*      NGA, ST. LOUIS,MO.                                  
/*   EPHEMERIS COMPUTED FROM 2 DAYS OF DATA                 
/*   EPOCHA v8 SMOOTHER                                     
/*   G2139 IERS2010 SATIGS SATAPC                           
*  2022  7 22 22 15  0.00000000
P  1 -13833.055805  21355.862215   6654.218446    316.266542                    
V  1   1464.525737  -9066.513967  31057.591688     -0.073323                    
P  2  16068.597510  -4883.548339 -19998.955645   -650.886704                    
V  2  -7164.185068  25786.446870 -11532.246944      0.008110                    
P  3 -18505.413516  12429.599703 -14470.852928   -314.061121                    
V  3 -18266.342253    645.123510  24222.774370     -0.098299                    
P  4  -8979.526098  12987.283150 -21334.805729   -142.676835                    
V  4 -16365.009984 -21640.848173  -6371.657441      0.046774                    
P  5  25951.617641  -5764.068888   1542.793705    -90.113688                    
V  5   2598.029867   2242.884499 -31604.910092     -0.014060                    
P  6   9612.223714  13003.443996 -20995.519120    395.829587                    
V  6 -10862.426359  24443.717323  10209.419836      0.153968                    
P  7  -3806.360569  24791.967820   8340.322857    318.253132                    
V  7  -6878.618684   8180.016311 -29380.443854     -0.015729                    
P  8 -14779.139347   5410.843893  21397.986220    -77.317554                    
V  8 -16867.776623 -21353.385175  -5895.447261     -0.015618                    
P  9   1673.708132  20732.367690 -16567.893246   -316.316988                    
V  9 -14672.564565 -15061.366900 -20449.191802      0.039419                    
P 10 -12483.116941 -12154.937193  20280.789546   -501.390268                    
V 10  24951.662255  -4246.016831  12615.604708     -0.135830                    
P 11  16211.002863    -63.118236 -21037.568818    -10.406943                    
V 11 -10748.724569  24454.504347  -8384.012428      0.002538                    
P 12  21076.753396 -10147.251704 -12746.906623   -250.556187                    
V 12  15888.273059   1065.724266  26065.997029     -0.059287                    
P 13  17934.374632   5229.509112  18792.969279    353.577704                    
V 13  10987.642847  21494.835017 -16154.302451      0.073783                    
P 14  10430.737455  13535.671662  20362.216699   -111.429224                    
V 14 -25625.754557   3541.194050  10672.071737      0.007076                    
P 15  14513.115638  -7254.438597  20645.594574    -43.308041                    
V 15  18910.480845  19649.294652  -5955.751684      0.030360                    
P 16 -26575.404764  -1229.501867  -3579.229992   -516.806699                    
V 16   4042.850552  -2321.580384 -31206.505756     -0.020411                    
P 17  12775.670803  23036.972017   3576.039154    639.931386                    
V 17  -4107.280949  -2046.687934  31751.906306      0.044083                    
P 18   4583.293538 -24773.144072   8200.426432    105.246714                    
V 18   6333.602312  -8647.951403 -29746.300084     -0.116167                    
P 19  17148.403370  19482.387474  -6456.023998    187.238505                    
V 19   2424.908446   7670.369237  30564.979338      0.050380                    
P 20  24212.911354    679.847772 -10621.163932    501.013575                    
V 20 -12119.097854   6908.766948 -27401.632133     -0.031517                    
P 21 -16147.721214  13908.865795  16011.209002    160.987710                    
V 21   3766.892613 -19250.052742  22062.134519     -0.001877                    
P 22 -18065.425310 -17785.708630  -7796.814355    296.888372                    
V 22  -3544.111273 -10128.235587  29550.394977      0.065059                    
P 23   -530.620646 -15087.943252  21835.032975    -34.054360                    
V 23  27397.775354  -4292.267639  -2409.664213     -0.015724                    
P 24  14372.362622 -19171.531589  10691.550214    189.870140                    
V 24   -897.140010  14643.862169  27116.341030     -0.103099                    
P 25   8241.444513 -15533.847795 -20112.916943    352.253206                    
V 25  24924.759419  -2353.797434  12472.446016      0.044177                    
P 26 -22743.365555  -5302.663096 -13026.912386    219.699718                    
V 26  15534.908890  -5684.028155 -24662.210508      0.021029                    
P 27 -19848.873286  -7961.659302  15781.973204    220.926091                    
V 27 -11233.378002 -16926.427961 -21981.340975      0.000570                    
P 28  18500.656498  10440.953803  16303.095152    336.573209                    
V 28 -19748.975119   2602.689604  21646.303361      0.029446                    
P 29   -315.861957 -20696.515032 -16648.510389   -536.009893                    
V 29  12834.015557  16726.112478 -21174.890160     -0.034556                    
P 30   4206.087337  20581.063008  16194.932986   -534.549020                    
V 30 -10366.632383  17945.143709 -20480.199608     -0.007730                    
P 31 -11941.140259 -10475.158674 -21361.282130   -186.780967                    
V 31  11441.447525 -24359.382763   6041.977081     -0.014552                    
P 32 -15963.734020 -21342.183332    967.609351   -183.342270                    
V 32   2785.761181   -866.566339  31549.924911     -0.101489                    
EOF
